{
  "type": "FeatureCollection",
  "features": [
    {
      "type": "Feature",
      "properties": {
        "norad_id": 38709,
        "name": "EXACTVIEW-1 (ADS-1B)",
        "group": "resource",
        "lat": -25.667656539465394,
        "lon": 91.0190023878607,
        "alt_km": 808.6213853584695,
        "timestamp": "2025-12-04T10:51:49.762900+00:00",
        "meta_object_name": "EXACTVIEW-1 (ADS-1B)",
        "meta_object_id": "2012-039C",
        "meta_epoch": "2025-12-03T21:30:11.581632",
        "meta_mean_motion": 14.2490219,
        "meta_eccentricity": 0.0011127,
        "meta_inclination": 98.9636,
        "meta_ra_of_asc_node": 86.1007,
        "meta_arg_of_pericenter": 19.4867,
        "meta_mean_anomaly": 340.6735,
        "meta_ephemeris_type": 0,
        "meta_classification_type": "U",
        "meta_norad_cat_id": 38709,
        "meta_element_set_no": 999,
        "meta_rev_at_epoch": 69489,
        "meta_bstar": 0.00014941384,
        "meta_mean_motion_dot": 3.03e-06,
        "meta_mean_motion_ddot": 0,
        "tle_line1": "1 38709U 12039C   25337.89596738  .00000303  00000+0  14941-3 0  9994",
        "tle_line2": "2 38709  98.9636  86.1007 0011127  19.4867 340.6735 14.24902190694895"
      },
      "geometry": {
        "type": "Point",
        "coordinates": [
          91.0190023878607,
          -25.667656539465394
        ]
      }
    },
    {
      "type": "Feature",
      "properties": {
        "norad_id": 38755,
        "name": "SPOT 6",
        "group": "resource",
        "lat": 76.55659974201618,
        "lon": 6.508834413980641,
        "alt_km": 689.7958052086751,
        "timestamp": "2025-12-04T10:51:49.762910+00:00",
        "meta_object_name": "SPOT 6",
        "meta_object_id": "2012-047A",
        "meta_epoch": "2025-12-03T22:58:36.938208",
        "meta_mean_motion": 14.58590437,
        "meta_eccentricity": 0.00010489,
        "meta_inclination": 98.1584,
        "meta_ra_of_asc_node": 42.9031,
        "meta_arg_of_pericenter": 100.3897,
        "meta_mean_anomaly": 259.7421,
        "meta_ephemeris_type": 0,
        "meta_classification_type": "U",
        "meta_norad_cat_id": 38755,
        "meta_element_set_no": 999,
        "meta_rev_at_epoch": 70459,
        "meta_bstar": 0.00018853487,
        "meta_mean_motion_dot": 8.32e-06,
        "meta_mean_motion_ddot": 0,
        "tle_line1": "1 38755U 12047A   25337.95737197  .00000832  00000+0  18853-3 0  9990",
        "tle_line2": "2 38755  98.1584  42.9031 0001048 100.3897 259.7421 14.58590437704596"
      },
      "geometry": {
        "type": "Point",
        "coordinates": [
          6.508834413980641,
          76.55659974201618
        ]
      }
    },
    {
      "type": "Feature",
      "properties": {
        "norad_id": 39019,
        "name": "PLEIADES 1B",
        "group": "resource",
        "lat": -20.552984742427775,
        "lon": 54.32662190599193,
        "alt_km": 703.379489959304,
        "timestamp": "2025-12-04T10:51:49.762920+00:00",
        "meta_object_name": "PLEIADES 1B",
        "meta_object_id": "2012-068A",
        "meta_epoch": "2025-12-04T04:22:22.897344",
        "meta_mean_motion": 14.58540106,
        "meta_eccentricity": 0.0001245,
        "meta_inclination": 98.1805,
        "meta_ra_of_asc_node": 50.9687,
        "meta_arg_of_pericenter": 87.4521,
        "meta_mean_anomaly": 272.6821,
        "meta_ephemeris_type": 0,
        "meta_classification_type": "U",
        "meta_norad_cat_id": 39019,
        "meta_element_set_no": 999,
        "meta_rev_at_epoch": 69242,
        "meta_bstar": 0.00019319,
        "meta_mean_motion_dot": 8.52e-06,
        "meta_mean_motion_ddot": 0,
        "tle_line1": "1 39019U 12068A   25338.18220946  .00000852  00000+0  19319-3 0  9992",
        "tle_line2": "2 39019  98.1805  50.9687 0001245  87.4521 272.6821 14.58540106692424"
      },
      "geometry": {
        "type": "Point",
        "coordinates": [
          54.32662190599193,
          -20.552984742427775
        ]
      }
    },
    {
      "type": "Feature",
      "properties": {
        "norad_id": 39030,
        "name": "GOKTURK 2",
        "group": "resource",
        "lat": 55.62541385918915,
        "lon": 169.1214673347206,
        "alt_km": 638.5542557707395,
        "timestamp": "2025-12-04T10:51:49.762930+00:00",
        "meta_object_name": "GOKTURK 2",
        "meta_object_id": "2012-073A",
        "meta_epoch": "2025-12-04T04:05:52.348128",
        "meta_mean_motion": 14.75273119,
        "meta_eccentricity": 8.1e-05,
        "meta_inclination": 97.6899,
        "meta_ra_of_asc_node": 180.2455,
        "meta_arg_of_pericenter": 96.4782,
        "meta_mean_anomaly": 263.652,
        "meta_ephemeris_type": 0,
        "meta_classification_type": "U",
        "meta_norad_cat_id": 39030,
        "meta_element_set_no": 999,
        "meta_rev_at_epoch": 69575,
        "meta_bstar": 0.00019559,
        "meta_mean_motion_dot": 1.277e-05,
        "meta_mean_motion_ddot": 0,
        "tle_line1": "1 39030U 12073A   25338.17074477  .00001277  00000+0  19559-3 0  9994",
        "tle_line2": "2 39030  97.6899 180.2455 0000810  96.4782 263.6520 14.75273119695751"
      },
      "geometry": {
        "type": "Point",
        "coordinates": [
          169.1214673347206,
          55.62541385918915
        ]
      }
    },
    {
      "type": "Feature",
      "properties": {
        "norad_id": 39084,
        "name": "LANDSAT 8",
        "group": "resource",
        "lat": -12.294263380695128,
        "lon": -135.1545656622952,
        "alt_km": 707.0946423086316,
        "timestamp": "2025-12-04T10:51:49.762940+00:00",
        "meta_object_name": "LANDSAT 8",
        "meta_object_id": "2013-008A",
        "meta_epoch": "2025-12-03T20:47:58.990272",
        "meta_mean_motion": 14.57126913,
        "meta_eccentricity": 0.0001067,
        "meta_inclination": 98.2083,
        "meta_ra_of_asc_node": 46.0707,
        "meta_arg_of_pericenter": 88.8861,
        "meta_mean_anomaly": 271.2459,
        "meta_ephemeris_type": 0,
        "meta_classification_type": "U",
        "meta_norad_cat_id": 39084,
        "meta_element_set_no": 999,
        "meta_rev_at_epoch": 66945,
        "meta_bstar": 0.00020082,
        "meta_mean_motion_dot": 8.6e-06,
        "meta_mean_motion_ddot": 0,
        "tle_line1": "1 39084U 13008A   25337.86665498  .00000860  00000+0  20082-3 0  9996",
        "tle_line2": "2 39084  98.2083  46.0707 0001067  88.8861 271.2459 14.57126913669452"
      },
      "geometry": {
        "type": "Point",
        "coordinates": [
          -135.1545656622952,
          -12.294263380695128
        ]
      }
    },
    {
      "type": "Feature",
      "properties": {
        "norad_id": 39086,
        "name": "SARAL",
        "group": "resource",
        "lat": -3.338912486637187,
        "lon": -18.011896813971404,
        "alt_km": 784.9296181422824,
        "timestamp": "2025-12-04T10:51:49.762951+00:00",
        "meta_object_name": "SARAL",
        "meta_object_id": "2013-009A",
        "meta_epoch": "2025-12-04T03:18:25.870752",
        "meta_mean_motion": 14.32752493,
        "meta_eccentricity": 0.000265,
        "meta_inclination": 98.5506,
        "meta_ra_of_asc_node": 162.1804,
        "meta_arg_of_pericenter": 125.1582,
        "meta_mean_anomaly": 234.9851,
        "meta_ephemeris_type": 0,
        "meta_classification_type": "U",
        "meta_norad_cat_id": 39086,
        "meta_element_set_no": 999,
        "meta_rev_at_epoch": 66767,
        "meta_bstar": 0.00012241,
        "meta_mean_motion_dot": 2.9e-06,
        "meta_mean_motion_ddot": 0,
        "tle_line1": "1 39086U 13009A   25338.13779943  .00000290  00000+0  12241-3 0  9996",
        "tle_line2": "2 39086  98.5506 162.1804 0002650 125.1582 234.9851 14.32752493667674"
      },
      "geometry": {
        "type": "Point",
        "coordinates": [
          -18.011896813971404,
          -3.338912486637187
        ]
      }
    },
    {
      "type": "Feature",
      "properties": {
        "norad_id": 39150,
        "name": "GAOFEN-1",
        "group": "resource",
        "lat": 79.30767459375885,
        "lon": -83.13092784381635,
        "alt_km": 629.104090051107,
        "timestamp": "2025-12-04T10:51:49.762961+00:00",
        "meta_object_name": "GAOFEN-1",
        "meta_object_id": "2013-018A",
        "meta_epoch": "2025-12-03T23:02:22.407648",
        "meta_mean_motion": 14.76509816,
        "meta_eccentricity": 0.00176749,
        "meta_inclination": 97.9337,
        "meta_ra_of_asc_node": 48.7741,
        "meta_arg_of_pericenter": 170.5695,
        "meta_mean_anomaly": 189.585,
        "meta_ephemeris_type": 0,
        "meta_classification_type": "U",
        "meta_norad_cat_id": 39150,
        "meta_element_set_no": 999,
        "meta_rev_at_epoch": 67943,
        "meta_bstar": 0.00023225791,
        "meta_mean_motion_dot": 1.571e-05,
        "meta_mean_motion_ddot": 0,
        "tle_line1": "1 39150U 13018A   25337.95998157  .00001571  00000+0  23226-3 0  9995",
        "tle_line2": "2 39150  97.9337  48.7741 0017674 170.5695 189.5850 14.76509816679439"
      },
      "geometry": {
        "type": "Point",
        "coordinates": [
          -83.13092784381635,
          79.30767459375885
        ]
      }
    }
  ]
}